{"type": "FeatureCollection", "features": [ {"type": "Feature", "properties": {"norad_id": 44543, "name": "BEIDOU-3 M23 (C45)", "group": "beidou", "lat": -13.83747724786939, "lon": 18.699304701034162, "alt_km": 21546.989138386023, "timestamp": "2025-12-26T05:31:12.773192+00:00", "meta": {"OBJECT_NAME": "BEIDOU-3 M23 (C45)", "OBJECT_ID": "2019-061B", "EPOCH": "2025-12-25T03:38:38.812704", "MEAN_MOTION": 1.86227443, "ECCENTRICITY": 0.00060137, "INCLINATION": 54.3997, "RA_OF_ASC_NODE": 188.5655, "ARG_OF_PERICENTER": 25.8754, "MEAN_ANOMALY": 168.3625, "EPHEMERIS_TYPE": 0, "CLASSIFICATION_TYPE": "U", "NORAD_CAT_ID": 44543, "ELEMENT_SET_NO": 999, "REV_AT_EPOCH": 4255, "BSTAR": 0, "MEAN_MOTION_DOT": 1.1e-06, "MEAN_MOTION_DDOT": 0}, "tle": {"line1": "1 44543U 19061B   25359.15183811  .00000110  00000+0  00000+0 0  9999", "line2": "2 44543  54.3997 188.5655 0006013  25.8754 168.3625  1.86227443 42552"}}, "geometry": {"type": "Point", "coordinates": [18.699304701034162, -13.83747724786939]}}, {"type": "Feature", "properties": {"norad_id": 44793, "name": "BEIDOU-3 M22 (C44)", "group": "beidou", "lat": 25.16522720256075, "lon": -34.22572196639703, "alt_km": 21508.02365494749, "timestamp": "2025-12-26T05:31:12.773204+00:00", "meta": {"OBJECT_NAME": "BEIDOU-3 M22 (C44)", "OBJECT_ID": "2019-078A", "EPOCH": "2025-12-22T23:04:03.320256", "MEAN_MOTION": 1.86232206, "ECCENTRICITY": 0.00060944, "INCLINATION": 54.0989, "RA_OF_ASC_NODE": 306.0279, "ARG_OF_PERICENTER": 24.0205, "MEAN_ANOMALY": 336.0117, "EPHEMERIS_TYPE": 0, "CLASSIFICATION_TYPE": "U", "NORAD_CAT_ID": 44793, "ELEMENT_SET_NO": 999, "REV_AT_EPOCH": 4136, "BSTAR": 0, "MEAN_MOTION_DOT": -5.4e-07, "MEAN_MOTION_DDOT": 0}, "tle": {"line1": "1 44793U 19078A   25356.96114954 -.00000054  00000+0  00000+0 0  9990", "line2": "2 44793  54.0989 306.0279 0006094  24.0205 336.0117  1.86232206 41368"}}, "geometry": {"type": "Point", "coordinates": [-34.22572196639703, 25.16522720256075]}}, {"type": "Feature", "properties": {"norad_id": 44794, "name": "BEIDOU-3 M21 (C43)", "group": "beidou", "lat": -45.049369959118685, "lon": -100.65954586610651, "alt_km": 21530.103907865352, "timestamp": "2025-12-26T05:31:12.773215+00:00", "meta": {"OBJECT_NAME": "BEIDOU-3 M21 (C43)", "OBJECT_ID": "2019-078B", "EPOCH": "2025-12-25T05:55:32.884896", "MEAN_MOTION": 1.86227898, "ECCENTRICITY": 0.0004304, "INCLINATION": 54.0703, "RA_OF_ASC_NODE": 305.9129, "ARG_OF_PERICENTER": 12.6939, "MEAN_ANOMALY": 347.3266, "EPHEMERIS_TYPE": 0, "CLASSIFICATION_TYPE": "U", "NORAD_CAT_ID": 44794, "ELEMENT_SET_NO": 999, "REV_AT_EPOCH": 4141, "BSTAR": 0, "MEAN_MOTION_DOT": -5.3e-07, "MEAN_MOTION_DDOT": 0}, "tle": {"line1": "1 44794U 19078B   25359.24690839 -.00000053  00000+0  00000+0 0  9995", "line2": "2 44794  54.0703 305.9129 0004304  12.6939 347.3266  1.86227898 41411"}}, "geometry": {"type": "Point", "coordinates": [-100.65954586610651, -45.049369959118685]}}, {"type": "Feature", "properties": {"norad_id": 44864, "name": "BEIDOU-3 M19 (C41)", "group": "beidou", "lat": 36.16851632268511, "lon": -140.50549522841865, "alt_km": 21568.157539754586, "timestamp": "2025-12-26T05:31:12.773227+00:00", "meta": {"OBJECT_NAME": "BEIDOU-3 M19 (C41)", "OBJECT_ID": "2019-090A", "EPOCH": "2025-12-24T13:05:33.212256", "MEAN_MOTION": 1.86231537, "ECCENTRICITY": 0.00184016, "INCLINATION": 56.4026, "RA_OF_ASC_NODE": 68.5704, "ARG_OF_PERICENTER": 285.2046, "MEAN_ANOMALY": 160.4424, "EPHEMERIS_TYPE": 0, "CLASSIFICATION_TYPE": "U", "NORAD_CAT_ID": 44864, "ELEMENT_SET_NO": 999, "REV_AT_EPOCH": 4098, "BSTAR": 0, "MEAN_MOTION_DOT": -2.5e-07, "MEAN_MOTION_DDOT": 0}, "tle": {"line1": "1 44864U 19090A   25358.54552329 -.00000025  00000+0  00000+0 0  9999", "line2": "2 44864  56.4026  68.5704 0018401 285.2046 160.4424  1.86231537 40980"}}, "geometry": {"type": "Point", "coordinates": [-140.50549522841865, 36.16851632268511]}}, {"type": "Feature", "properties": {"norad_id": 44865, "name": "BEIDOU-3 M20 (C42)", "group": "beidou", "lat": -35.68863219530566, "lon": -82.95492128353449, "alt_km": 21519.62786136794, "timestamp": "2025-12-26T05:31:12.773237+00:00", "meta": {"OBJECT_NAME": "BEIDOU-3 M20 (C42)", "OBJECT_ID": "2019-090B", "EPOCH": "2025-12-24T09:14:17.322144", "MEAN_MOTION": 1.86231611, "ECCENTRICITY": 0.00155264, "INCLINATION": 56.4041, "RA_OF_ASC_NODE": 68.61, "ARG_OF_PERICENTER": 297.3537, "MEAN_ANOMALY": 130.233, "EPHEMERIS_TYPE": 0, "CLASSIFICATION_TYPE": "U", "NORAD_CAT_ID": 44865, "ELEMENT_SET_NO": 999, "REV_AT_EPOCH": 4096, "BSTAR": 0, "MEAN_MOTION_DOT": -2.4e-07, "MEAN_MOTION_DDOT": 0}, "tle": {"line1": "1 44865U 19090B   25358.38492271 -.00000024  00000+0  00000+0 0  9990", "line2": "2 44865  56.4041  68.6100 0015526 297.3537 130.2330  1.86231611 40965"}}, "geometry": {"type": "Point", "coordinates": [-82.95492128353449, -35.68863219530566]}}, {"type": "Feature", "properties": {"norad_id": 45344, "name": "BEIDOU-3 G2 (C60)", "group": "beidou", "lat": -1.4135200072730758, "lon": -102.21291055283096, "alt_km": 35777.89705371298, "timestamp": "2025-12-26T05:31:12.773249+00:00", "meta": {"OBJECT_NAME": "BEIDOU-3 G2 (C60)", "OBJECT_ID": "2020-017A", "EPOCH": "2025-12-25T19:22:19.403328", "MEAN_MOTION": 1.00272136, "ECCENTRICITY": 0.00021357, "INCLINATION": 2.5199, "RA_OF_ASC_NODE": 44.1352, "ARG_OF_PERICENTER": 237.2485, "MEAN_ANOMALY": 183.8049, "EPHEMERIS_TYPE": 0, "CLASSIFICATION_TYPE": "U", "NORAD_CAT_ID": 45344, "ELEMENT_SET_NO": 999, "REV_AT_EPOCH": 2152, "BSTAR": 0, "MEAN_MOTION_DOT": -1.2e-06, "MEAN_MOTION_DDOT": 0}, "tle": {"line1": "1 45344U 20017A   25359.80716902 -.00000120  00000+0  00000+0 0  9999", "line2": "2 45344   2.5199  44.1352 0002135 237.2485 183.8049  1.00272136 21524"}}, "geometry": {"type": "Point", "coordinates": [-102.21291055283096, -1.4135200072730758]}}, {"type": "Feature", "properties": {"norad_id": 45807, "name": "BEIDOU-3 G3 (C61)", "group": "beidou", "lat": -1.3588864902678792, "lon": -71.80375999484257, "alt_km": 35786.26620796911, "timestamp": "2025-12-26T05:31:12.773260+00:00", "meta": {"OBJECT_NAME": "BEIDOU-3 G3 (C61)", "OBJECT_ID": "2020-040A", "EPOCH": "2025-12-25T22:09:08.222976", "MEAN_MOTION": 1.00267109, "ECCENTRICITY": 0.00065911, "INCLINATION": 2.021, "RA_OF_ASC_NODE": 66.691, "ARG_OF_PERICENTER": 308.6704, "MEAN_ANOMALY": 162.1167, "EPHEMERIS_TYPE": 0, "CLASSIFICATION_TYPE": "U", "NORAD_CAT_ID": 45807, "ELEMENT_SET_NO": 999, "REV_AT_EPOCH": 2033, "BSTAR": 0, "MEAN_MOTION_DOT": -3.32e-06, "MEAN_MOTION_DDOT": 0}, "tle": {"line1": "1 45807U 20040A   25359.92301184 -.00000332  00000+0  00000+0 0  9999", "line2": "2 45807   2.0210  66.6910 0006591 308.6704 162.1167  1.00267109 20336"}}, "geometry": {"type": "Point", "coordinates": [-71.80375999484257, -1.3588864902678792]}}, {"type": "Feature", "properties": {"norad_id": 56564, "name": "BEIDOU-3 G4 (C62)", "group": "beidou", "lat": 0.438795282296892, "lon": -22.17096724606459, "alt_km": 35796.641564244834, "timestamp": "2025-12-26T05:31:12.773272+00:00", "meta": {"OBJECT_NAME": "BEIDOU-3 G4 (C62)", "OBJECT_ID": "2023-066A", "EPOCH": "2025-12-25T18:57:53.281728", "MEAN_MOTION": 1.00270763, "ECCENTRICITY": 0.00025421, "INCLINATION": 0.7878, "RA_OF_ASC_NODE": 303.0679, "ARG_OF_PERICENTER": 229.686, "MEAN_ANOMALY": 6.3158, "EPHEMERIS_TYPE": 0, "CLASSIFICATION_TYPE": "U", "NORAD_CAT_ID": 56564, "ELEMENT_SET_NO": 999, "REV_AT_EPOCH": 965, "BSTAR": 0, "MEAN_MOTION_DOT": -8.9e-07, "MEAN_MOTION_DDOT": 0}, "tle": {"line1": "1 56564U 23066A   25359.79020002 -.00000089  00000+0  00000+0 0  9993", "line2": "2 56564   0.7878 303.0679 0002542 229.6860   6.3158  1.00270763  9651"}}, "geometry": {"type": "Point", "coordinates": [-22.17096724606459, 0.438795282296892]}}, {"type": "Feature", "properties": {"norad_id": 58654, "name": "BEIDOU-3 M28 (C50)", "group": "beidou", "lat": -49.285178064788575, "lon": -59.15221293671913, "alt_km": 21526.582769408873, "timestamp": "2025-12-26T05:31:12.773283+00:00", "meta": {"OBJECT_NAME": "BEIDOU-3 M28 (C50)", "OBJECT_ID": "2023-207A", "EPOCH": "2025-12-24T18:54:51.717312", "MEAN_MOTION": 1.86229668, "ECCENTRICITY": 0.0002918, "INCLINATION": 55.5946, "RA_OF_ASC_NODE": 68.1934, "ARG_OF_PERICENTER": 275.8619, "MEAN_ANOMALY": 84.1589, "EPHEMERIS_TYPE": 0, "CLASSIFICATION_TYPE": "U", "NORAD_CAT_ID": 58654, "ELEMENT_SET_NO": 999, "REV_AT_EPOCH": 1359, "BSTAR": 0, "MEAN_MOTION_DOT": -2.7e-07, "MEAN_MOTION_DDOT": 0}, "tle": {"line1": "1 58654U 23207A   25358.78809858 -.00000027  00000+0  00000+0 0  9996", "line2": "2 58654  55.5946  68.1934 0002918 275.8619  84.1589  1.86229668 13594"}}, "geometry": {"type": "Point", "coordinates": [-59.15221293671913, -49.285178064788575]}}, {"type": "Feature", "properties": {"norad_id": 58655, "name": "BEIDOU-3 M26 (C48)", "group": "beidou", "lat": 18.379751703731177, "lon": 81.29126223019044, "alt_km": 21532.008028545377, "timestamp": "2025-12-26T05:31:12.773293+00:00", "meta": {"OBJECT_NAME": "BEIDOU-3 M26 (C48)", "OBJECT_ID": "2023-207B", "EPOCH": "2025-12-25T15:49:44.827968", "MEAN_MOTION": 1.86231167, "ECCENTRICITY": 0.00042533, "INCLINATION": 55.5974, "RA_OF_ASC_NODE": 68.1501, "ARG_OF_PERICENTER": 261.5267, "MEAN_ANOMALY": 98.4781, "EPHEMERIS_TYPE": 0, "CLASSIFICATION_TYPE": "U", "NORAD_CAT_ID": 58655, "ELEMENT_SET_NO": 999, "REV_AT_EPOCH": 1359, "BSTAR": 0, "MEAN_MOTION_DOT": -2.9e-07, "MEAN_MOTION_DDOT": 0}, "tle": {"line1": "1 58655U 23207B   25359.65954662 -.00000029  00000+0  00000+0 0  9990", "line2": "2 58655  55.5974  68.1501 0004253 261.5267  98.4781  1.86231167 13590"}}, "geometry": {"type": "Point", "coordinates": [81.29126223019044, 18.379751703731177]}}]}